HULIANWANG DIGUI-119    
1 67059U 25295A   26003.16362210  .00000620  00000+0  33282-3 0  9990
2 67059  50.0041 281.8980 0013907 322.2657  37.7280 14.24626679  3177
HULIANWANG DIGUI-120    
1 67060U 25295B   26003.15873229  .00000630  00000+0  33748-3 0  9996
2 67060  50.0050 281.8728 0013276 322.8742  37.1253 14.24628502  3170
HULIANWANG DIGUI-121    
1 67061U 25295C   26003.16047388  .00000630  00000+0  33721-3 0  9998
2 67061  50.0013 281.8673 0013181 322.1075  37.8910 14.24645318  3177
HULIANWANG DIGUI-122    
1 67062U 25295D   26003.15782519  .00000631  00000+0  33798-3 0  9995
2 67062  50.0044 281.8659 0013025 328.0687  31.9436 14.24620547  3172
HULIANWANG DIGUI-123    
1 67063U 25295E   26003.15679890  .00000627  00000+0  33627-3 0  9999
2 67063  50.0050 281.8636 0011963 327.5807  32.4370 14.24626194  3179
HULIANWANG DIGUI-124    
1 67064U 25295F   26003.15582664  .00000621  00000+0  33347-3 0  9995
2 67064  50.0009 281.8398 0011833 321.2729  38.7335 14.24630135  3179
HULIANWANG DIGUI-125    
1 67065U 25295G   26003.15474179  .00000627  00000+0  33592-3 0  9995
2 67065  50.0002 281.8307 0011965 329.1790  30.8420 14.24638089  3178
HULIANWANG DIGUI-126    
1 67066U 25295H   26003.15371528  .00000621  00000+0  33356-3 0  9992
2 67066  50.0005 281.8252 0011252 322.7458  37.2674 14.24658408  3179
HULIANWANG DIGUI-127    
1 67067U 25295J   26003.15269424 -.00001328  00000+0 -49852-3 0  9999
2 67067  50.0043 281.8297 0010731 329.2265  30.8018 14.24672524  3176
CZ-12 R/B               
1 67068U 25295K   26003.12251848  .00000125  00000+0  88570-4 0  9991
2 67068  49.9935 279.6065 0056869 212.5441 147.1968 14.41134772  3199
XIWANG-5 02             
1 67069U 25296A   26003.12819276  .00018993  00000+0  10628-2 0  9997
2 67069  41.3532 339.9345 0002671 320.2616  39.8008 15.13041450  3207
DEAR-5                  
1 67070U 25296B   26003.16545932  .00010462  00000+0  52557-3 0  9999
2 67070  41.3576 339.3511 0019645 171.1580 188.9590 15.17047372  3203
