CCSDS_OMM_VERS = 2.0
CREATION_DATE  = 
ORIGINATOR     = 

OBJECT_NAME    = HULIANWANG DIGUI-119
OBJECT_ID      = 2025-295A
CENTER_NAME    = EARTH
REF_FRAME      = TEME
TIME_SYSTEM    = UTC
MEAN_ELEMENT_THEORY = SGP/SGP4

EPOCH          = 2026-01-03T03:55:36.949440
MEAN_MOTION    = 14.24626679
ECCENTRICITY   = .0013907
INCLINATION    = 50.0041
RA_OF_ASC_NODE = 281.8980
ARG_OF_PERICENTER = 322.2657
MEAN_ANOMALY   = 37.7280

EPHEMERIS_TYPE = 0
CLASSIFICATION_TYPE = U
NORAD_CAT_ID   = 67059
ELEMENT_SET_NO = 999
REV_AT_EPOCH   = 317
BSTAR          = .33282E-3
MEAN_MOTION_DOT = .62E-5
MEAN_MOTION_DDOT = 0

CCSDS_OMM_VERS = 2.0
CREATION_DATE  = 
ORIGINATOR     = 

OBJECT_NAME    = HULIANWANG DIGUI-120
OBJECT_ID      = 2025-295B
CENTER_NAME    = EARTH
REF_FRAME      = TEME
TIME_SYSTEM    = UTC
MEAN_ELEMENT_THEORY = SGP/SGP4

EPOCH          = 2026-01-03T03:48:34.469856
MEAN_MOTION    = 14.24628502
ECCENTRICITY   = .0013276
INCLINATION    = 50.0050
RA_OF_ASC_NODE = 281.8728
ARG_OF_PERICENTER = 322.8742
MEAN_ANOMALY   = 37.1253

EPHEMERIS_TYPE = 0
CLASSIFICATION_TYPE = U
NORAD_CAT_ID   = 67060
ELEMENT_SET_NO = 999
REV_AT_EPOCH   = 317
BSTAR          = .33748E-3
MEAN_MOTION_DOT = .63E-5
MEAN_MOTION_DDOT = 0

CCSDS_OMM_VERS = 2.0
CREATION_DATE  = 
ORIGINATOR     = 

OBJECT_NAME    = HULIANWANG DIGUI-121
OBJECT_ID      = 2025-295C
CENTER_NAME    = EARTH
REF_FRAME      = TEME
TIME_SYSTEM    = UTC
MEAN_ELEMENT_THEORY = SGP/SGP4

EPOCH          = 2026-01-03T03:51:04.943232
MEAN_MOTION    = 14.24645318
ECCENTRICITY   = .0013181
INCLINATION    = 50.0013
RA_OF_ASC_NODE = 281.8673
ARG_OF_PERICENTER = 322.1075
MEAN_ANOMALY   = 37.8910

EPHEMERIS_TYPE = 0
CLASSIFICATION_TYPE = U
NORAD_CAT_ID   = 67061
ELEMENT_SET_NO = 999
REV_AT_EPOCH   = 317
BSTAR          = .33721E-3
MEAN_MOTION_DOT = .63E-5
MEAN_MOTION_DDOT = 0

CCSDS_OMM_VERS = 2.0
CREATION_DATE  = 
ORIGINATOR     = 

OBJECT_NAME    = HULIANWANG DIGUI-122
OBJECT_ID      = 2025-295D
CENTER_NAME    = EARTH
REF_FRAME      = TEME
TIME_SYSTEM    = UTC
MEAN_ELEMENT_THEORY = SGP/SGP4

EPOCH          = 2026-01-03T03:47:16.096416
MEAN_MOTION    = 14.24620547
ECCENTRICITY   = .0013025
INCLINATION    = 50.0044
RA_OF_ASC_NODE = 281.8659
ARG_OF_PERICENTER = 328.0687
MEAN_ANOMALY   = 31.9436

EPHEMERIS_TYPE = 0
CLASSIFICATION_TYPE = U
NORAD_CAT_ID   = 67062
ELEMENT_SET_NO = 999
REV_AT_EPOCH   = 317
BSTAR          = .33798E-3
MEAN_MOTION_DOT = .631E-5
MEAN_MOTION_DDOT = 0

CCSDS_OMM_VERS = 2.0
CREATION_DATE  = 
ORIGINATOR     = 

OBJECT_NAME    = HULIANWANG DIGUI-123
OBJECT_ID      = 2025-295E
CENTER_NAME    = EARTH
REF_FRAME      = TEME
TIME_SYSTEM    = UTC
MEAN_ELEMENT_THEORY = SGP/SGP4

EPOCH          = 2026-01-03T03:45:47.424960
MEAN_MOTION    = 14.24626194
ECCENTRICITY   = .0011963
INCLINATION    = 50.0050
RA_OF_ASC_NODE = 281.8636
ARG_OF_PERICENTER = 327.5807
MEAN_ANOMALY   = 32.4370

EPHEMERIS_TYPE = 0
CLASSIFICATION_TYPE = U
NORAD_CAT_ID   = 67063
ELEMENT_SET_NO = 999
REV_AT_EPOCH   = 317
BSTAR          = .33627E-3
MEAN_MOTION_DOT = .627E-5
MEAN_MOTION_DDOT = 0

CCSDS_OMM_VERS = 2.0
CREATION_DATE  = 
ORIGINATOR     = 

OBJECT_NAME    = HULIANWANG DIGUI-124
OBJECT_ID      = 2025-295F
CENTER_NAME    = EARTH
REF_FRAME      = TEME
TIME_SYSTEM    = UTC
MEAN_ELEMENT_THEORY = SGP/SGP4

EPOCH          = 2026-01-03T03:44:23.421696
MEAN_MOTION    = 14.24630135
ECCENTRICITY   = .0011833
INCLINATION    = 50.0009
RA_OF_ASC_NODE = 281.8398
ARG_OF_PERICENTER = 321.2729
MEAN_ANOMALY   = 38.7335

EPHEMERIS_TYPE = 0
CLASSIFICATION_TYPE = U
NORAD_CAT_ID   = 67064
ELEMENT_SET_NO = 999
REV_AT_EPOCH   = 317
BSTAR          = .33347E-3
MEAN_MOTION_DOT = .621E-5
MEAN_MOTION_DDOT = 0

CCSDS_OMM_VERS = 2.0
CREATION_DATE  = 
ORIGINATOR     = 

OBJECT_NAME    = HULIANWANG DIGUI-125
OBJECT_ID      = 2025-295G
CENTER_NAME    = EARTH
REF_FRAME      = TEME
TIME_SYSTEM    = UTC
MEAN_ELEMENT_THEORY = SGP/SGP4

EPOCH          = 2026-01-03T03:42:49.690656
MEAN_MOTION    = 14.24638089
ECCENTRICITY   = .0011965
INCLINATION    = 50.0002
RA_OF_ASC_NODE = 281.8307
ARG_OF_PERICENTER = 329.1790
MEAN_ANOMALY   = 30.8420

EPHEMERIS_TYPE = 0
CLASSIFICATION_TYPE = U
NORAD_CAT_ID   = 67065
ELEMENT_SET_NO = 999
REV_AT_EPOCH   = 317
BSTAR          = .33592E-3
MEAN_MOTION_DOT = .627E-5
MEAN_MOTION_DDOT = 0

CCSDS_OMM_VERS = 2.0
CREATION_DATE  = 
ORIGINATOR     = 

OBJECT_NAME    = HULIANWANG DIGUI-126
OBJECT_ID      = 2025-295H
CENTER_NAME    = EARTH
REF_FRAME      = TEME
TIME_SYSTEM    = UTC
MEAN_ELEMENT_THEORY = SGP/SGP4

EPOCH          = 2026-01-03T03:41:21.000192
MEAN_MOTION    = 14.24658408
ECCENTRICITY   = .0011252
INCLINATION    = 50.0005
RA_OF_ASC_NODE = 281.8252
ARG_OF_PERICENTER = 322.7458
MEAN_ANOMALY   = 37.2674

EPHEMERIS_TYPE = 0
CLASSIFICATION_TYPE = U
NORAD_CAT_ID   = 67066
ELEMENT_SET_NO = 999
REV_AT_EPOCH   = 317
BSTAR          = .33356E-3
MEAN_MOTION_DOT = .621E-5
MEAN_MOTION_DDOT = 0

CCSDS_OMM_VERS = 2.0
CREATION_DATE  = 
ORIGINATOR     = 

OBJECT_NAME    = HULIANWANG DIGUI-127
OBJECT_ID      = 2025-295J
CENTER_NAME    = EARTH
REF_FRAME      = TEME
TIME_SYSTEM    = UTC
MEAN_ELEMENT_THEORY = SGP/SGP4

EPOCH          = 2026-01-03T03:39:52.782336
MEAN_MOTION    = 14.24672524
ECCENTRICITY   = .0010731
INCLINATION    = 50.0043
RA_OF_ASC_NODE = 281.8297
ARG_OF_PERICENTER = 329.2265
MEAN_ANOMALY   = 30.8018

EPHEMERIS_TYPE = 0
CLASSIFICATION_TYPE = U
NORAD_CAT_ID   = 67067
ELEMENT_SET_NO = 999
REV_AT_EPOCH   = 317
BSTAR          = -.49852E-3
MEAN_MOTION_DOT = -.1328E-4
MEAN_MOTION_DDOT = 0

CCSDS_OMM_VERS = 2.0
CREATION_DATE  = 
ORIGINATOR     = 

OBJECT_NAME    = CZ-12 R/B
OBJECT_ID      = 2025-295K
CENTER_NAME    = EARTH
REF_FRAME      = TEME
TIME_SYSTEM    = UTC
MEAN_ELEMENT_THEORY = SGP/SGP4

EPOCH          = 2026-01-03T02:56:25.596672
MEAN_MOTION    = 14.41134772
ECCENTRICITY   = .0056869
INCLINATION    = 49.9935
RA_OF_ASC_NODE = 279.6065
ARG_OF_PERICENTER = 212.5441
MEAN_ANOMALY   = 147.1968

EPHEMERIS_TYPE = 0
CLASSIFICATION_TYPE = U
NORAD_CAT_ID   = 67068
ELEMENT_SET_NO = 999
REV_AT_EPOCH   = 319
BSTAR          = .8857E-4
MEAN_MOTION_DOT = .125E-5
MEAN_MOTION_DDOT = 0

CCSDS_OMM_VERS = 2.0
CREATION_DATE  = 
ORIGINATOR     = 

OBJECT_NAME    = XIWANG-5 02
OBJECT_ID      = 2025-296A
CENTER_NAME    = EARTH
REF_FRAME      = TEME
TIME_SYSTEM    = UTC
MEAN_ELEMENT_THEORY = SGP/SGP4

EPOCH          = 2026-01-03T03:04:35.854464
MEAN_MOTION    = 15.13041450
ECCENTRICITY   = .0002671
INCLINATION    = 41.3532
RA_OF_ASC_NODE = 339.9345
ARG_OF_PERICENTER = 320.2616
MEAN_ANOMALY   = 39.8008

EPHEMERIS_TYPE = 0
CLASSIFICATION_TYPE = U
NORAD_CAT_ID   = 67069
ELEMENT_SET_NO = 999
REV_AT_EPOCH   = 320
BSTAR          = .10628E-2
MEAN_MOTION_DOT = .18993E-3
MEAN_MOTION_DDOT = 0

CCSDS_OMM_VERS = 2.0
CREATION_DATE  = 
ORIGINATOR     = 

OBJECT_NAME    = DEAR-5
OBJECT_ID      = 2025-296B
CENTER_NAME    = EARTH
REF_FRAME      = TEME
TIME_SYSTEM    = UTC
MEAN_ELEMENT_THEORY = SGP/SGP4

EPOCH          = 2026-01-03T03:58:15.685248
MEAN_MOTION    = 15.17047372
ECCENTRICITY   = .0019645
INCLINATION    = 41.3576
RA_OF_ASC_NODE = 339.3511
ARG_OF_PERICENTER = 171.1580
MEAN_ANOMALY   = 188.9590

EPHEMERIS_TYPE = 0
CLASSIFICATION_TYPE = U
NORAD_CAT_ID   = 67070
ELEMENT_SET_NO = 999
REV_AT_EPOCH   = 320
BSTAR          = .52557E-3
MEAN_MOTION_DOT = .10462E-3
MEAN_MOTION_DDOT = 0

